[{"OBJECT_NAME":"STARLINK-1942","OBJECT_ID":"2020-074BH","EPOCH":"2026-03-09T22:04:46.182144","MEAN_MOTION":15.47178759,"ECCENTRICITY":0.00028113,"INCLINATION":53.0469,"RA_OF_ASC_NODE":293.0972,"ARG_OF_PERICENTER":58.7562,"MEAN_ANOMALY":301.3719,"EPHEMERIS_TYPE":0,"CLASSIFICATION_TYPE":"U","NORAD_CAT_ID":46794,"ELEMENT_SET_NO":999,"REV_AT_EPOCH":29710,"BSTAR":0.0020000274,"MEAN_MOTION_DOT":0.00104231,"MEAN_MOTION_DDOT":0},{"OBJECT_NAME":"ARCSAT-1","OBJECT_ID":"2022-033E","EPOCH":"2026-03-09T04:59:54.555648","MEAN_MOTION":15.50898478,"ECCENTRICITY":0.00053088,"INCLINATION":97.2734,"RA_OF_ASC_NODE":159.2089,"ARG_OF_PERICENTER":185.4192,"MEAN_ANOMALY":174.7004,"EPHEMERIS_TYPE":0,"CLASSIFICATION_TYPE":"U","NORAD_CAT_ID":52161,"ELEMENT_SET_NO":999,"REV_AT_EPOCH":22019,"BSTAR":0.00026094098,"MEAN_MOTION_DOT":0.00015015,"MEAN_MOTION_DDOT":0}]
